[{"OBJECT_NAME":"STARLINK-5072","OBJECT_ID":"2023-028T","EPOCH":"2026-03-09T21:28:37.229376","MEAN_MOTION":14.98331552,"ECCENTRICITY":0.00029159,"INCLINATION":69.9993,"RA_OF_ASC_NODE":243.8254,"ARG_OF_PERICENTER":269.9235,"MEAN_ANOMALY":90.159,"EPHEMERIS_TYPE":0,"CLASSIFICATION_TYPE":"U","NORAD_CAT_ID":55758,"ELEMENT_SET_NO":999,"REV_AT_EPOCH":16607,"BSTAR":6.332235e-6,"MEAN_MOTION_DOT":-1.7e-7,"MEAN_MOTION_DDOT":0},{"OBJECT_NAME":"AIST-1 (RS41)","OBJECT_ID":"2013-078C","EPOCH":"2026-03-09T23:05:53.785248","MEAN_MOTION":14.95763496,"ECCENTRICITY":0.00150774,"INCLINATION":82.4188,"RA_OF_ASC_NODE":6.9784,"ARG_OF_PERICENTER":249.0877,"MEAN_ANOMALY":110.8731,"EPHEMERIS_TYPE":0,"CLASSIFICATION_TYPE":"U","NORAD_CAT_ID":39492,"ELEMENT_SET_NO":999,"REV_AT_EPOCH":66041,"BSTAR":0.00019220788,"MEAN_MOTION_DOT":2.171e-5,"MEAN_MOTION_DDOT":0}]
